TROLL                   
1 62658U 25009BB  26068.22522958  .00013174  00000+0  48220-3 0  9994
2 62658  97.3932 150.7169 0001816  59.1850 300.9568 15.28164315118170
STARLINK-35610          
1 66428U 25259G   26068.96000743  .00027712  00000+0  10125-2 0  9999
2 66428  43.0029 272.7341 0002396 274.9006  85.1572 15.27587366 19536
